[{"OBJECT_NAME":"SES-18","OBJECT_ID":"2023-038A","EPOCH":"2026-03-07T03:09:37.344672","MEAN_MOTION":1.00272275,"ECCENTRICITY":0.0002284,"INCLINATION":0.0532,"RA_OF_ASC_NODE":271.909,"ARG_OF_PERICENTER":40.33,"MEAN_ANOMALY":156.8963,"EPHEMERIS_TYPE":0,"CLASSIFICATION_TYPE":"U","NORAD_CAT_ID":55970,"ELEMENT_SET_NO":999,"REV_AT_EPOCH":1108,"BSTAR":0,"MEAN_MOTION_DOT":-1.03e-6,"MEAN_MOTION_DDOT":0},{"OBJECT_NAME":"SES-19","OBJECT_ID":"2023-038B","EPOCH":"2026-03-07T03:30:38.669760","MEAN_MOTION":1.00271098,"ECCENTRICITY":0.0001793,"INCLINATION":0.0475,"RA_OF_ASC_NODE":290.4928,"ARG_OF_PERICENTER":62.2265,"MEAN_ANOMALY":89.8852,"EPHEMERIS_TYPE":0,"CLASSIFICATION_TYPE":"U","NORAD_CAT_ID":55971,"ELEMENT_SET_NO":999,"REV_AT_EPOCH":1105,"BSTAR":0,"MEAN_MOTION_DOT":8.5e-7,"MEAN_MOTION_DDOT":0},{"OBJECT_NAME":"INTELSAT 40E (IS-40E)","OBJECT_ID":"2023-052A","EPOCH":"2026-03-07T03:12:59.520672","MEAN_MOTION":1.00272298,"ECCENTRICITY":7.13e-5,"INCLINATION":0.0119,"RA_OF_ASC_NODE":137.1061,"ARG_OF_PERICENTER":231.1459,"MEAN_ANOMALY":113.8307,"EPHEMERIS_TYPE":0,"CLASSIFICATION_TYPE":"U","NORAD_CAT_ID":56174,"ELEMENT_SET_NO":999,"REV_AT_EPOCH":1080,"BSTAR":0,"MEAN_MOTION_DOT":-1.77e-6,"MEAN_MOTION_DDOT":0},{"OBJECT_NAME":"VIASAT-3 F1","OBJECT_ID":"2023-060A","EPOCH":"2026-03-07T02:58:38.621568","MEAN_MOTION":1.00271024,"ECCENTRICITY":6.32e-5,"INCLINATION":0.0192,"RA_OF_ASC_NODE":161.2973,"ARG_OF_PERICENTER":282.825,"MEAN_ANOMALY":36.4777,"EPHEMERIS_TYPE":0,"CLASSIFICATION_TYPE":"U","NORAD_CAT_ID":56370,"ELEMENT_SET_NO":999,"REV_AT_EPOCH":1041,"BSTAR":0,"MEAN_MOTION_DOT":0,"MEAN_MOTION_DDOT":0},{"OBJECT_NAME":"ARCTURUS","OBJECT_ID":"2023-060B","EPOCH":"2026-03-07T02:16:57.396000","MEAN_MOTION":1.0027302,"ECCENTRICITY":7.12e-5,"INCLINATION":2.5115,"RA_OF_ASC_NODE":81.2394,"ARG_OF_PERICENTER":344.9979,"MEAN_ANOMALY":205.2951,"EPHEMERIS_TYPE":0,"CLASSIFICATION_TYPE":"U","NORAD_CAT_ID":56371,"ELEMENT_SET_NO":999,"REV_AT_EPOCH":1043,"BSTAR":0,"MEAN_MOTION_DOT":-6.5e-7,"MEAN_MOTION_DDOT":0},{"OBJECT_NAME":"GS-1","OBJECT_ID":"2023-060C","EPOCH":"2026-03-06T12:05:48.751872","MEAN_MOTION":1.00299102,"ECCENTRICITY":0.00047612,"INCLINATION":2.4607,"RA_OF_ASC_NODE":81.0544,"ARG_OF_PERICENTER":262.892,"MEAN_ANOMALY":85.1835,"EPHEMERIS_TYPE":0,"CLASSIFICATION_TYPE":"U","NORAD_CAT_ID":56372,"ELEMENT_SET_NO":999,"REV_AT_EPOCH":650,"BSTAR":0,"MEAN_MOTION_DOT":-1.79e-6,"MEAN_MOTION_DDOT":0},{"OBJECT_NAME":"BEIDOU-3 G4","OBJECT_ID":"2023-066A","EPOCH":"2026-03-07T04:24:37.655424","MEAN_MOTION":1.00272461,"ECCENTRICITY":0.0002295,"INCLINATION":0.6436,"RA_OF_ASC_NODE":311.3008,"ARG_OF_PERICENTER":156.0566,"MEAN_ANOMALY":283.7341,"EPHEMERIS_TYPE":0,"CLASSIFICATION_TYPE":"U","NORAD_CAT_ID":56564,"ELEMENT_SET_NO":999,"REV_AT_EPOCH":1037,"BSTAR":0,"MEAN_MOTION_DOT":-1.14e-6,"MEAN_MOTION_DDOT":0},{"OBJECT_NAME":"ARABSAT-7B (BADR-8)","OBJECT_ID":"2023-075A","EPOCH":"2026-03-07T01:52:21.715104","MEAN_MOTION":1.00266509,"ECCENTRICITY":0.0005512,"INCLINATION":0.0781,"RA_OF_ASC_NODE":25.8379,"ARG_OF_PERICENTER":331.1491,"MEAN_ANOMALY":221.8789,"EPHEMERIS_TYPE":0,"CLASSIFICATION_TYPE":"U","NORAD_CAT_ID":56757,"ELEMENT_SET_NO":999,"REV_AT_EPOCH":1009,"BSTAR":0,"MEAN_MOTION_DOT":1.42e-6,"MEAN_MOTION_DDOT":0},{"OBJECT_NAME":"NVS-01 (IRNSS-1J)","OBJECT_ID":"2023-076A","EPOCH":"2026-03-07T00:50:35.676960","MEAN_MOTION":1.00272929,"ECCENTRICITY":0.0007191,"INCLINATION":2.4125,"RA_OF_ASC_NODE":248.5281,"ARG_OF_PERICENTER":46.1018,"MEAN_ANOMALY":12.2922,"EPHEMERIS_TYPE":0,"CLASSIFICATION_TYPE":"U","NORAD_CAT_ID":56759,"ELEMENT_SET_NO":999,"REV_AT_EPOCH":1009,"BSTAR":0,"MEAN_MOTION_DOT":-3.4e-6,"MEAN_MOTION_DDOT":0},{"OBJECT_NAME":"NUSANTARA TIGA (SATRIA)","OBJECT_ID":"2023-086A","EPOCH":"2026-03-06T23:12:37.571328","MEAN_MOTION":1.00268054,"ECCENTRICITY":0.0005901,"INCLINATION":0.0223,"RA_OF_ASC_NODE":284.8879,"ARG_OF_PERICENTER":40.4813,"MEAN_ANOMALY":333.4809,"EPHEMERIS_TYPE":0,"CLASSIFICATION_TYPE":"U","NORAD_CAT_ID":57045,"ELEMENT_SET_NO":999,"REV_AT_EPOCH":873,"BSTAR":0,"MEAN_MOTION_DOT":0,"MEAN_MOTION_DDOT":0},{"OBJECT_NAME":"H2SAT (HEINRICH HERTZ)","OBJECT_ID":"2023-093A","EPOCH":"2026-03-07T01:45:38.679840","MEAN_MOTION":1.00271683,"ECCENTRICITY":0.0001497,"INCLINATION":0.0451,"RA_OF_ASC_NODE":303.5692,"ARG_OF_PERICENTER":161.7097,"MEAN_ANOMALY":86.5961,"EPHEMERIS_TYPE":0,"CLASSIFICATION_TYPE":"U","NORAD_CAT_ID":57213,"ELEMENT_SET_NO":999,"REV_AT_EPOCH":989,"BSTAR":0,"MEAN_MOTION_DOT":-1.0e-8,"MEAN_MOTION_DDOT":0},{"OBJECT_NAME":"SYRACUSE 4B","OBJECT_ID":"2023-093B","EPOCH":"2026-03-07T00:11:46.898016","MEAN_MOTION":1.00271591,"ECCENTRICITY":3.31e-5,"INCLINATION":0.0213,"RA_OF_ASC_NODE":141.4242,"ARG_OF_PERICENTER":269.6057,"MEAN_ANOMALY":110.1482,"EPHEMERIS_TYPE":0,"CLASSIFICATION_TYPE":"U","NORAD_CAT_ID":57214,"ELEMENT_SET_NO":999,"REV_AT_EPOCH":594,"BSTAR":0,"MEAN_MOTION_DOT":-5.6e-7,"MEAN_MOTION_DDOT":0},{"OBJECT_NAME":"JUPITER 3 (ECHOSTAR 24)","OBJECT_ID":"2023-108A","EPOCH":"2026-03-06T19:22:34.226976","MEAN_MOTION":1.00271729,"ECCENTRICITY":0.0001118,"INCLINATION":0.0105,"RA_OF_ASC_NODE":139.8871,"ARG_OF_PERICENTER":201.1407,"MEAN_ANOMALY":18.9424,"EPHEMERIS_TYPE":0,"CLASSIFICATION_TYPE":"U","NORAD_CAT_ID":57479,"ELEMENT_SET_NO":999,"REV_AT_EPOCH":962,"BSTAR":0,"MEAN_MOTION_DOT":-1.53e-6,"MEAN_MOTION_DDOT":0},{"OBJECT_NAME":"GALAXY 37 (G-37)","OBJECT_ID":"2023-112A","EPOCH":"2026-03-07T03:30:38.669760","MEAN_MOTION":1.00272255,"ECCENTRICITY":0.0002034,"INCLINATION":0.0142,"RA_OF_ASC_NODE":106.2109,"ARG_OF_PERICENTER":246.2989,"MEAN_ANOMALY":97.9905,"EPHEMERIS_TYPE":0,"CLASSIFICATION_TYPE":"U","NORAD_CAT_ID":57493,"ELEMENT_SET_NO":999,"REV_AT_EPOCH":951,"BSTAR":0,"MEAN_MOTION_DOT":4.6e-7,"MEAN_MOTION_DDOT":0},{"OBJECT_NAME":"LUDI TANCE-4 01A","OBJECT_ID":"2023-120A","EPOCH":"2026-03-06T19:31:09.994368","MEAN_MOTION":1.00268733,"ECCENTRICITY":0.0005067,"INCLINATION":15.1734,"RA_OF_ASC_NODE":196.5024,"ARG_OF_PERICENTER":107.5024,"MEAN_ANOMALY":242.9324,"EPHEMERIS_TYPE":0,"CLASSIFICATION_TYPE":"U","NORAD_CAT_ID":57624,"ELEMENT_SET_NO":999,"REV_AT_EPOCH":951,"BSTAR":0,"MEAN_MOTION_DOT":-1.91e-6,"MEAN_MOTION_DDOT":0},{"OBJECT_NAME":"TJS-10","OBJECT_ID":"2023-169A","EPOCH":"2026-03-06T17:41:46.562208","MEAN_MOTION":0.99764814,"ECCENTRICITY":0.0010983,"INCLINATION":2.28,"RA_OF_ASC_NODE":81.7414,"ARG_OF_PERICENTER":234.7724,"MEAN_ANOMALY":230.4499,"EPHEMERIS_TYPE":0,"CLASSIFICATION_TYPE":"U","NORAD_CAT_ID":58204,"ELEMENT_SET_NO":999,"REV_AT_EPOCH":851,"BSTAR":0,"MEAN_MOTION_DOT":-3.2e-6,"MEAN_MOTION_DDOT":0},{"OBJECT_NAME":"ZHONGXING-6E","OBJECT_ID":"2023-172A","EPOCH":"2026-03-06T15:24:38.786112","MEAN_MOTION":1.00267455,"ECCENTRICITY":0.00026556,"INCLINATION":0.0529,"RA_OF_ASC_NODE":267.5543,"ARG_OF_PERICENTER":92.4842,"MEAN_ANOMALY":150.943,"EPHEMERIS_TYPE":0,"CLASSIFICATION_TYPE":"U","NORAD_CAT_ID":58253,"ELEMENT_SET_NO":999,"REV_AT_EPOCH":863,"BSTAR":0,"MEAN_MOTION_DOT":-3.65e-6,"MEAN_MOTION_DDOT":0}]
